GPS BIIR-2  (PRN 13)    
1 24876U 97035A   16065.89853647  .00000056  00000-0  00000+0 0  9999
2 24876  55.6942 245.5644 0044246 114.9360 245.5261  2.00562570136433
GPS BIIR-3  (PRN 11)    
1 25933U 99055A   16066.54608685  .00000025  00000-0  00000+0 0  9997
2 25933  51.3284  98.1716 0159830  86.2315 306.6957  2.00564936120262
GPS BIIR-4  (PRN 20)    
1 26360U 00025A   16066.46743596 -.00000010  00000-0  00000+0 0  9998
2 26360  53.0710 174.3968 0045925  76.2694   2.7823  2.00559502115953
GPS BIIR-5  (PRN 28)    
1 26407U 00040A   16066.57278575 -.00000064  00000-0  00000+0 0  9998
2 26407  56.6988   3.3692 0201315 267.1613 165.1939  2.00569687114636
GPS BIIR-6  (PRN 14)    
1 26605U 00071A   16066.36311355  .00000050  00000-0  00000+0 0  9997
2 26605  55.2638 243.4540 0085691 248.6766 326.0818  2.00556524112236
GPS BIIR-7  (PRN 18)    
1 26690U 01004A   16066.54131282 -.00000010  00000-0  00000+0 0  9994
2 26690  52.9995 177.3694 0169916 250.9569 188.1536  2.00563699110632
GPS BIIR-8  (PRN 16)    
1 27663U 03005A   16066.55414238 -.00000064  00000-0  00000+0 0  9993
2 27663  56.7741   3.0810 0085614  17.8638 164.2468  2.00558812 95999
GPS BIIR-9  (PRN 21)    
1 27704U 03010A   16066.01323186  .00000022  00000-0  00000+0 0  9990
2 27704  53.6163 117.6747 0234354 255.8421 216.8123  2.00565015 94782
GPS BIIR-10 (PRN 22)    
1 28129U 03058A   16066.05257266 -.00000011  00000-0  00000+0 0  9992
2 28129  52.8768 177.4332 0079403 245.2834 113.8745  2.00399192 89492
GPS BIIR-11 (PRN 19)    
1 28190U 04009A   16066.63301475  .00000014  00000-0  00000+0 0  9995
2 28190  55.7292  64.4722 0105986  40.2646 345.6521  2.00571667 87676
GPS BIIR-12 (PRN 23)    
1 28361U 04023A   16066.56832145  .00000042  00000-0  00000+0 0  9997
2 28361  54.2324 239.0368 0106795 211.6345  44.1202  2.00558209 85752
GPS BIIR-13 (PRN 02)    
1 28474U 04045A   16065.76085696  .00000021  00000-0  00000+0 0  9995
2 28474  54.0074 116.9650 0156951 237.0181 159.0854  2.00556172 83106
GPS BIIRM-1 (PRN 17)    
1 28874U 05038A   16066.15417657  .00000011  00000-0  00000+0 0  9991
2 28874  55.8962  61.6842 0112099 249.1205 179.1812  2.00566517 76518
GPS BIIRM-2 (PRN 31)    
1 29486U 06042A   16066.48800138  .00000009  00000-0  00000+0 0  9990
2 29486  55.6998 300.9686 0084003 334.5057 255.6541  2.00559996 69230
GPS BIIRM-3 (PRN 12)    
1 29601U 06052A   16066.11162694 -.00000065  00000-0  00000+0 0  9991
2 29601  56.7444   2.0234 0057993  37.3544 323.0486  2.00552449 68146
GPS BIIRM-4 (PRN 15)    
1 32260U 07047A   16066.43703558  .00000039  00000-0  00000+0 0  9996
2 32260  53.3612 235.8023 0079940  25.6994 334.6758  2.00577244 61534
GPS BIIRM-5 (PRN 29)    
1 32384U 07062A   16065.94346039  .00000013  00000-0  00000+0 0  9994
2 32384  55.9500  62.2450 0011944 320.8665 182.1986  2.00571777 60258
GPS BIIRM-6 (PRN 07)    
1 32711U 08012A   16066.34316267  .00000009  00000-0  00000+0 0  9994
2 32711  55.4227 300.4595 0092055 207.5999 151.9724  2.00564284 58451
GPS BIIRM-7 (PRN 04)    
1 34661U 09014A   16066.10075422 -.00000065  00000-0  00000+0 0  9995
2 34661  56.3467   0.3812 0080518  48.1293 203.4360  2.00572008 50979
GPS BIIRM-8 (PRN 05)    
1 35752U 09043A   16066.31396781 -.00000009  00000-0  00000+0 0  9994
2 35752  54.2238 178.4849 0044714  24.7150 342.9502  2.00554927 48032
GPS BIIF-1  (PRN 25)    
1 36585U 10022A   16065.69200766 -.00000066  00000-0  00000+0 0  9998
2 36585  56.0734 359.1787 0051109  38.5395 349.7064  2.00578738 42260
GPS BIIF-2  (PRN 01)    
1 37753U 11036A   16066.54964262  .00000029  00000-0  00000+0 0  9993
2 37753  55.2257 119.4389 0050219  23.7829 345.9292  2.00566062 33968
GPS BIIF-3  (PRN 24)    
1 38833U 12053A   16066.02613561  .00000010  00000-0  00000+0 0  9999
2 38833  54.4549 297.8510 0042453  19.0864 341.1360  2.00568386 25032
GPS BIIF-4  (PRN 27)    
1 39166U 13023A   16066.38398557  .00000006  00000-0  00000+0 0  9996
2 39166  55.6066  58.8433 0032812   8.0058 352.0715  2.00568249 20554
GPS BIIF-5  (PRN 30)    
1 39533U 14008A   16066.38263165  .00000002  00000-0  00000+0 0  9990
2 39533  54.6084 303.0544 0017347 178.9002 181.1672  2.00568507 14936
GPS BIIF-6  (PRN 06)    
1 39741U 14026A   16065.66188174  .00000022  00000-0  00000+0 0  9999
2 39741  55.2164 118.9904 0005865 261.1234  98.8882  2.00566398 13190
GPS BIIF-7  (PRN 09)    
1 40105U 14045A   16066.25442631  .00000046  00000-0  00000+0 0  9999
2 40105  54.7507 238.7056 0004544 123.2394 236.7914  2.00568985 11650
GPS BIIF-8  (PRN 03)    
1 40294U 14068A   16066.12365891 -.00000008  00000-0  00000+0 0  9990
2 40294  54.9629 179.1113 0003723 226.4449 133.5079  2.00554103  9877
GPS BIIF-9  (PRN 26)    
1 40534U 15013A   16065.76470265 -.00000067  00000-0  00000+0 0  9994
2 40534  55.0424 358.7452 0009523 344.0869  15.8897  2.00558323  6939
GPS BIIF-10  (PRN 08)   
1 40730U 15033A   16065.92254460  .00000005  00000-0  00000+0 0  9990
2 40730  55.1430  58.7448 0020499 283.2395  76.5585  2.00565568  4698
GPS BIIF-11  (PRN 10)   
1 41019U 15062A   16065.97589677 -.00000008  00000-0  00000+0 0  9993
2 41019  54.9782 178.8825 0012492 205.1872 154.7362  2.00562011  2517
GPS BIIF-12  (PRN 32)   
1 41328U 16007A   16063.58514781  .00000089  00000-0  10000-3 0  9998
2 41328  55.0140 238.8692 0002811 251.0462 108.9264  1.99177115   545
